GLOBALSTAR M001         
1 25162U 98008A   24172.89403384 -.00000071  00000+0  19470-3 0  9998
2 25162  52.0049 304.7780 0001794 182.1597 328.5659 12.38186260199061
GLOBALSTAR M004         
1 25163U 98008B   24172.46758934 -.00000061  00000+0  23959-3 0  9992
2 25163  52.0005  77.6446 0002419 200.2395 330.8841 12.63362923215969
GLOBALSTAR M002         
1 25164U 98008C   24172.98136419 -.00000073  00000+0  59009-4 0  9997
2 25164  52.0028  65.8613 0000736 182.2647 177.8169 11.61502595142160
GLOBALSTAR M003         
1 25165U 98008D   24173.00383388  .00000043  00000+0  14134-2 0  9995
2 25165  51.9888  88.8551 0007591 289.2669 154.6285 12.12012305189511
GLOBALSTAR M014         
1 25306U 98023A   24172.44342742 -.00000049  00000+0  54359-3 0  9996
2 25306  51.9864 358.0407 0001629  72.9611 297.5537 11.65468685148991
GLOBALSTAR M006         
1 25307U 98023B   24172.95023944 -.00000119  00000+0 -89060-3 0  9999
2 25307  51.9959  35.7310 0003723 162.3828 302.2017 11.58164346175086
GLOBALSTAR M015         
1 25308U 98023C   24172.97862294 -.00000104  00000+0 -69510-3 0  9993
2 25308  51.9809 117.5747 0012209 153.5783 280.0109 11.48853116152938
GLOBALSTAR M008         
1 25309U 98023D   24173.00784626 -.00000085  00000+0  83493-4 0  9995
2 25309  51.9940 165.1837 0002406 133.8045 260.8286 12.36044605193495
